ONEWEB-0522             
1 54140U 22138AD  26185.27708273  .00000160  00000+0  36671-3 0  9990
2 54140  87.9193 301.5549 0001846 104.0707 256.0631 13.19725474179067
ONEWEB-0523             
1 54141U 22138AE  26184.99884358 -.00000131  00000+0 -35516-3 0  9995
2 54141  87.9196 271.0909 0002614  85.5794 274.5638 13.20771045181528
ONEWEB-0524             
1 54142U 22138AF  26185.21601584  .00000035  00000+0  55125-4 0  9990
2 54142  87.9196 271.0445 0002914 101.3828 258.7633 13.20771900181554
ONEWEB-0525             
1 54143U 22138AG  26185.06856971 -.00000030  00000+0 -10792-3 0  9993
2 54143  87.9191 301.6034 0001939 112.0409 248.0929 13.19726000179055
ONEWEB-0526             
1 54144U 22138AH  26185.25336691  .00000089  00000+0  18920-3 0  9990
2 54144  87.9193 301.5673 0002016 104.9426 255.1930 13.19727218179055
ONEWEB-0529             
1 54145U 22138AJ  26185.25654694  .00000055  00000+0  10408-3 0  9993
2 54145  87.9185 301.5742 0001931 107.5840 252.5504 13.19725464179079
ONEWEB-0531             
1 54146U 22138AK  26185.20254558  .00000070  00000+0  14118-3 0  9993
2 54146  87.9194 271.0448 0002783  89.0109 271.1343 13.20772878181559
ONEWEB-0535             
1 54147U 22138AL  26185.28970388  .00000087  00000+0  18508-3 0  9993
2 54147  87.9191 301.5535 0002062  91.8308 268.3061 13.19726304179097
ONEWEB-0536             
1 54148U 22138AM  26184.73453620  .00000053  00000+0  97844-4 0  9992
2 54148  87.9183 271.1587 0002989  91.3750 268.7726 13.20772405181485
ONEWEB-0527             
1 54642U 22166A   26185.13264565  .00000074  00000+0  14733-3 0  9993
2 54642  87.9240 240.6254 0002040  98.8845 261.2520 13.21826595173779
ONEWEB-0528             
1 54643U 22166B   26185.13347694 -.00000011  00000+0 -58562-4 0  9991
2 54643  87.9240 240.6276 0002031 103.8905 256.2455 13.21825199173789
ONEWEB-0539             
1 54644U 22166C   26185.09561194  .00000095  00000+0  19854-3 0  9990
2 54644  87.9249 240.6078 0001864  94.5561 265.5786 13.21827873173776
ONEWEB-0540             
1 54645U 22166D   26185.10247642 -.00000252  00000+0 -64175-3 0  9995
2 54645  87.9239 240.6354 0001981  94.5834 265.5527 13.21825672173763
ONEWEB-0542             
1 54646U 22166E   26185.10572461  .00000111  00000+0  23623-3 0  9991
2 54646  87.9249 240.6049 0001802  91.8152 268.3188 13.21825362173772
ONEWEB-0545             
1 54647U 22166F   26184.91901387  .00002527  00000+0  60857-2 0  9995
2 54647  87.9237 240.6525 0001820  82.0667 278.0673 13.21812643173711
ONEWEB-0580             
1 54648U 22166G   26185.12082706 -.00000209  00000+0 -53672-3 0  9990
2 54648  87.9239 240.6122 0001922  85.3069 274.8285 13.21823508173784
ONEWEB-0582             
1 54649U 22166H   26185.08720399  .00000056  00000+0  10380-3 0  9990
2 54649  87.9240 240.6111 0001830  85.7652 274.3691 13.21827868173751
ONEWEB-0583             
1 54650U 22166J   26185.09899729  .00000117  00000+0  25067-3 0  9993
2 54650  87.9241 240.6322 0001983  94.8566 265.2794 13.21825404173760
ONEWEB-0584             
1 54651U 22166K   26185.11916406  .00000071  00000+0  13970-3 0  9998
2 54651  87.9238 240.6134 0002044  94.6775 265.4592 13.21824398173755
ONEWEB-0585             
1 54652U 22166L   26184.91562917 -.00000020  00000+0 -81125-4 0  9994
2 54652  87.9248 240.6416 0002127 101.1917 258.9456 13.21827684173739
ONEWEB-0586             
1 54653U 22166M   26185.15619153  .00000048  00000+0  85329-4 0  9995
2 54653  87.9242 240.6188 0001906  94.9323 265.2029 13.21825313173761
ONEWEB-0587             
1 54654U 22166N   26185.09058884  .00000111  00000+0  23830-3 0  9996
2 54654  87.9252 240.6072 0002302 103.9853 256.1537 13.21825252173917
ONEWEB-0589             
1 54655U 22166P   26184.85004090  .00000035  00000+0  54322-4 0  9996
2 54655  87.9236 240.6645 0001804  71.5522 288.5808 13.21825614173748
ONEWEB-0590             
1 54656U 22166Q   26185.10221053  .00000147  00000+0  32348-3 0  9993
2 54656  87.9246 240.6067 0002424  90.3261 269.8151 13.21825545173764
ONEWEB-0591             
1 54657U 22166R   26185.11412685  .00000065  00000+0  12700-3 0  9997
2 54657  87.9239 240.6177 0002116  95.2040 264.9336 13.21827597173799
ONEWEB-0592             
1 54658U 22166S   26185.11747059 -.00000041  00000+0 -13075-3 0  9996
2 54658  87.9251 240.5970 0002025  97.1090 263.0274 13.21823336173674
ONEWEB-0593             
1 54659U 22166T   26185.13936348  .00000029  00000+0  39718-4 0  9997
2 54659  87.9242 240.6028 0001875  96.9940 263.1407 13.21825076173787
ONEWEB-0594             
1 54660U 22166U   26184.85674559 -.00000238  00000+0 -60739-3 0  9990
2 54660  87.9238 240.6751 0002064 101.9963 258.1403 13.21825754173761
ONEWEB-0595             
1 54661U 22166V   26185.13600180 -.00000020  00000+0 -79798-4 0  9997
2 54661  87.9249 240.6015 0002251 100.6555 259.4832 13.21824855173770
ONEWEB-0596             
1 54662U 22166W   26185.11075278  .00000082  00000+0  16759-3 0  9993
2 54662  87.9246 240.6172 0002180  98.2653 261.8729 13.21827873173779
