OBJECT_NAME,OBJECT_ID,EPOCH,MEAN_MOTION,ECCENTRICITY,INCLINATION,RA_OF_ASC_NODE,ARG_OF_PERICENTER,MEAN_ANOMALY,EPHEMERIS_TYPE,CLASSIFICATION_TYPE,NORAD_CAT_ID,ELEMENT_SET_NO,REV_AT_EPOCH,BSTAR,MEAN_MOTION_DOT,MEAN_MOTION_DDOT
ONEWEB-0522,2022-138AD,2026-07-04T06:38:59.947872,13.19725474,.00018466,87.9193,301.5549,104.0707,256.0631,0,U,54140,999,17906,.36670904E-3,.16E-5,0
ONEWEB-0523,2022-138AE,2026-07-03T23:58:20.085312,13.20771045,.00026149,87.9196,271.0909,85.5794,274.5638,0,U,54141,999,18152,-.35516295E-3,-.131E-5,0
ONEWEB-0524,2022-138AF,2026-07-04T05:11:03.768576,13.20771900,.00029143,87.9196,271.0445,101.3828,258.7633,0,U,54142,999,18155,.55125486E-4,.35E-6,0
ONEWEB-0525,2022-138AG,2026-07-04T01:38:44.422944,13.19726000,.00019395,87.9191,301.6034,112.0409,248.0929,0,U,54143,999,17905,-.10791616E-3,-.3E-6,0
ONEWEB-0526,2022-138AH,2026-07-04T06:04:50.901024,13.19727218,.00020166,87.9193,301.5673,104.9426,255.1930,0,U,54144,999,17905,.18919661E-3,.89E-6,0
ONEWEB-0529,2022-138AJ,2026-07-04T06:09:25.655616,13.19725464,.00019314,87.9185,301.5742,107.5840,252.5504,0,U,54145,999,17907,.10407841E-3,.55E-6,0
ONEWEB-0531,2022-138AK,2026-07-04T04:51:39.938112,13.20772878,.00027835,87.9194,271.0448,89.0109,271.1343,0,U,54146,999,18155,.14118096E-3,.7E-6,0
ONEWEB-0535,2022-138AL,2026-07-04T06:57:10.415232,13.19726304,.00020629,87.9191,301.5535,91.8308,268.3061,0,U,54147,999,17909,.18507675E-3,.87E-6,0
ONEWEB-0536,2022-138AM,2026-07-03T17:37:43.927680,13.20772405,.00029894,87.9183,271.1587,91.3750,268.7726,0,U,54148,999,18148,.97844214E-4,.53E-6,0
ONEWEB-0527,2022-166A,2026-07-04T03:11:00.584160,13.21826595,.00020409,87.9240,240.6254,98.8845,261.2520,0,U,54642,999,17377,.14732789E-3,.74E-6,0
ONEWEB-0528,2022-166B,2026-07-04T03:12:12.407616,13.21825199,.00020315,87.9240,240.6276,103.8905,256.2455,0,U,54643,999,17378,-.58561602E-4,-.11E-6,0
ONEWEB-0539,2022-166C,2026-07-04T02:17:40.871616,13.21827873,.00018644,87.9249,240.6078,94.5561,265.5786,0,U,54644,999,17377,.19853619E-3,.95E-6,0
ONEWEB-0540,2022-166D,2026-07-04T02:27:33.962688,13.21825672,.00019815,87.9239,240.6354,94.5834,265.5527,0,U,54645,999,17376,-.64175159E-3,-.252E-5,0
ONEWEB-0542,2022-166E,2026-07-04T02:32:14.606304,13.21825362,.00018028,87.9249,240.6049,91.8152,268.3188,0,U,54646,999,17377,.23623186E-3,.111E-5,0
ONEWEB-0545,2022-166F,2026-07-03T22:03:22.798368,13.21812643,.000182,87.9237,240.6525,82.0667,278.0673,0,U,54647,999,17371,.60857133E-2,.2527E-4,0
ONEWEB-0580,2022-166G,2026-07-04T02:53:59.457984,13.21823508,.0001922,87.9239,240.6122,85.3069,274.8285,0,U,54648,999,17378,-.53672328E-3,-.209E-5,0
ONEWEB-0582,2022-166H,2026-07-04T02:05:34.424736,13.21827868,.00018309,87.9240,240.6111,85.7652,274.3691,0,U,54649,999,17375,.10379683E-3,.56E-6,0
ONEWEB-0583,2022-166J,2026-07-04T02:22:33.365856,13.21825404,.00019835,87.9241,240.6322,94.8566,265.2794,0,U,54650,999,17376,.25067069E-3,.117E-5,0
ONEWEB-0584,2022-166K,2026-07-04T02:51:35.774784,13.21824398,.00020446,87.9238,240.6134,94.6775,265.4592,0,U,54651,999,17375,.13969911E-3,.71E-6,0
ONEWEB-0585,2022-166L,2026-07-03T21:58:30.360288,13.21827684,.00021277,87.9248,240.6416,101.1917,258.9456,0,U,54652,999,17373,-.81124741E-4,-.2E-6,0
ONEWEB-0586,2022-166M,2026-07-04T03:44:54.948192,13.21825313,.00019069,87.9242,240.6188,94.9323,265.2029,0,U,54653,999,17376,.85328597E-4,.48E-6,0
ONEWEB-0587,2022-166N,2026-07-04T02:10:26.875776,13.21825252,.00023029,87.9252,240.6072,103.9853,256.1537,0,U,54654,999,17391,.23830274E-3,.111E-5,0
ONEWEB-0589,2022-166P,2026-07-03T20:24:03.533760,13.21825614,.00018044,87.9236,240.6645,71.5522,288.5808,0,U,54655,999,17374,.54322081E-4,.35E-6,0
ONEWEB-0590,2022-166Q,2026-07-04T02:27:10.989792,13.21825545,.00024247,87.9246,240.6067,90.3261,269.8151,0,U,54656,999,17376,.32347753E-3,.147E-5,0
ONEWEB-0591,2022-166R,2026-07-04T02:44:20.559840,13.21827597,.0002116,87.9239,240.6177,95.2040,264.9336,0,U,54657,999,17379,.12699789E-3,.65E-6,0
ONEWEB-0592,2022-166S,2026-07-04T02:49:09.458976,13.21823336,.00020255,87.9251,240.5970,97.1090,263.0274,0,U,54658,999,17367,-.13075257E-3,-.41E-6,0
ONEWEB-0593,2022-166T,2026-07-04T03:20:41.004672,13.21825076,.0001875,87.9242,240.6028,96.9940,263.1407,0,U,54659,999,17378,.39718351E-4,.29E-6,0
ONEWEB-0594,2022-166U,2026-07-03T20:33:42.818976,13.21825754,.00020644,87.9238,240.6751,101.9963,258.1403,0,U,54660,999,17376,-.60738516E-3,-.238E-5,0
ONEWEB-0595,2022-166V,2026-07-04T03:15:50.555520,13.21824855,.00022515,87.9249,240.6015,100.6555,259.4832,0,U,54661,999,17377,-.79797518E-4,-.2E-6,0
ONEWEB-0596,2022-166W,2026-07-04T02:39:29.040192,13.21827873,.00021809,87.9246,240.6172,98.2653,261.8729,0,U,54662,999,17377,.1675924E-3,.82E-6,0
